{"type": "FeatureCollection", "features": [ {"type": "Feature", "properties": {"norad_id": 47051, "name": "COSMOS 2251 DEB", "group": "cosmos-2251-debris", "lat": 47.57369724658221, "lon": -31.004451922157948, "alt_km": 1217.3168958924816, "timestamp": "2025-12-22T18:58:53.831254+00:00", "meta": {"OBJECT_NAME": "COSMOS 2251 DEB", "OBJECT_ID": "1993-036BXF", "EPOCH": "2025-12-13T06:55:53.868288", "MEAN_MOTION": 13.67117141, "ECCENTRICITY": 0.03401033, "INCLINATION": 74.1001, "RA_OF_ASC_NODE": 182.6908, "ARG_OF_PERICENTER": 296.1774, "MEAN_ANOMALY": 246.9893, "EPHEMERIS_TYPE": 0, "CLASSIFICATION_TYPE": "U", "NORAD_CAT_ID": 47051, "ELEMENT_SET_NO": 999, "REV_AT_EPOCH": 59945, "BSTAR": 0.0019326179, "MEAN_MOTION_DOT": 2.391e-05, "MEAN_MOTION_DDOT": 0}, "tle": {"line1": "1 47051U 93036BXF 25347.28881792  .00002391  00000+0  19326-2 0  9991", "line2": "2 47051  74.1001 182.6908 0340103 296.1774 246.9893 13.67117141599458"}}, "geometry": {"type": "Point", "coordinates": [-31.004451922157948, 47.57369724658221]}}, {"type": "Feature", "properties": {"norad_id": 47052, "name": "COSMOS 2251 DEB", "group": "cosmos-2251-debris", "lat": 32.55987017747821, "lon": 131.38382979070178, "alt_km": 786.6336965593919, "timestamp": "2025-12-22T18:58:53.831263+00:00", "meta": {"OBJECT_NAME": "COSMOS 2251 DEB", "OBJECT_ID": "1993-036BXG", "EPOCH": "2025-12-13T17:42:34.547904", "MEAN_MOTION": 14.35482778, "ECCENTRICITY": 0.00580984, "INCLINATION": 74.0478, "RA_OF_ASC_NODE": 338.4955, "ARG_OF_PERICENTER": 52.4094, "MEAN_ANOMALY": 127.807, "EPHEMERIS_TYPE": 0, "CLASSIFICATION_TYPE": "U", "NORAD_CAT_ID": 47052, "ELEMENT_SET_NO": 999, "REV_AT_EPOCH": 61803, "BSTAR": 0.00037288685, "MEAN_MOTION_DOT": 1.067e-05, "MEAN_MOTION_DDOT": 0}, "tle": {"line1": "1 47052U 93036BXG 25347.73789986  .00001067  00000+0  37289-3 0  9992", "line2": "2 47052  74.0478 338.4955 0058098  52.4094 127.8070 14.35482778618033"}}, "geometry": {"type": "Point", "coordinates": [131.38382979070178, 32.55987017747821]}}, {"type": "Feature", "properties": {"norad_id": 47053, "name": "COSMOS 2251 DEB", "group": "cosmos-2251-debris", "lat": 53.89708061032695, "lon": -99.13588612491229, "alt_km": 753.9334100128171, "timestamp": "2025-12-22T18:58:53.831273+00:00", "meta": {"OBJECT_NAME": "COSMOS 2251 DEB", "OBJECT_ID": "1993-036BXH", "EPOCH": "2025-12-21T23:22:14.227392", "MEAN_MOTION": 13.59701409, "ECCENTRICITY": 0.03775476, "INCLINATION": 74.0593, "RA_OF_ASC_NODE": 239.1144, "ARG_OF_PERICENTER": 50.5889, "MEAN_ANOMALY": 327.7768, "EPHEMERIS_TYPE": 0, "CLASSIFICATION_TYPE": "U", "NORAD_CAT_ID": 47053, "ELEMENT_SET_NO": 999, "REV_AT_EPOCH": 29014, "BSTAR": 0.0013674764, "MEAN_MOTION_DOT": 1.606e-05, "MEAN_MOTION_DDOT": 0}, "tle": {"line1": "1 47053U 93036BXH 25355.97377578  .00001606  00000+0  13675-2 0  9999", "line2": "2 47053  74.0593 239.1144 0377547  50.5889 327.7768 13.59701409290146"}}, "geometry": {"type": "Point", "coordinates": [-99.13588612491229, 53.89708061032695]}}, {"type": "Feature", "properties": {"norad_id": 47059, "name": "COSMOS 2251 DEB", "group": "cosmos-2251-debris", "lat": 58.83451068966681, "lon": -117.13143512534809, "alt_km": 512.0844130251808, "timestamp": "2025-12-22T18:58:53.831283+00:00", "meta": {"OBJECT_NAME": "COSMOS 2251 DEB", "OBJECT_ID": "1993-036BXP", "EPOCH": "2025-12-16T01:10:48.054720", "MEAN_MOTION": 15.13144812, "ECCENTRICITY": 0.00128667, "INCLINATION": 73.98, "RA_OF_ASC_NODE": 228.534, "ARG_OF_PERICENTER": 42.2566, "MEAN_ANOMALY": 26.5019, "EPHEMERIS_TYPE": 0, "CLASSIFICATION_TYPE": "U", "NORAD_CAT_ID": 47059, "ELEMENT_SET_NO": 999, "REV_AT_EPOCH": 8355, "BSTAR": 0.0018804977, "MEAN_MOTION_DOT": 0.00033522, "MEAN_MOTION_DDOT": 0}, "tle": {"line1": "1 47059U 93036BXP 25350.04916730  .00033522  00000+0  18805-2 0  9999", "line2": "2 47059  73.9800 228.5340 0012866  42.2566  26.5019 15.13144812 83550"}}, "geometry": {"type": "Point", "coordinates": [-117.13143512534809, 58.83451068966681]}}, {"type": "Feature", "properties": {"norad_id": 47062, "name": "COSMOS 2251 DEB", "group": "cosmos-2251-debris", "lat": 30.2879264868746, "lon": 71.19763223160169, "alt_km": 1202.0477832317256, "timestamp": "2025-12-22T18:58:53.831293+00:00", "meta": {"OBJECT_NAME": "COSMOS 2251 DEB", "OBJECT_ID": "1993-036BXS", "EPOCH": "2025-12-13T23:56:30.676992", "MEAN_MOTION": 13.71952164, "ECCENTRICITY": 0.03233862, "INCLINATION": 74.0831, "RA_OF_ASC_NODE": 76.1003, "ARG_OF_PERICENTER": 201.6929, "MEAN_ANOMALY": 337.1469, "EPHEMERIS_TYPE": 0, "CLASSIFICATION_TYPE": "U", "NORAD_CAT_ID": 47062, "ELEMENT_SET_NO": 999, "REV_AT_EPOCH": 55619, "BSTAR": 0.0017198262, "MEAN_MOTION_DOT": 2.244e-05, "MEAN_MOTION_DDOT": 0}, "tle": {"line1": "1 47062U 93036BXS 25347.99757728  .00002244  00000+0  17198-2 0  9994", "line2": "2 47062  74.0831  76.1003 0323386 201.6929 337.1469 13.71952164556193"}}, "geometry": {"type": "Point", "coordinates": [71.19763223160169, 30.2879264868746]}}, {"type": "Feature", "properties": {"norad_id": 47068, "name": "COSMOS 2251 DEB", "group": "cosmos-2251-debris", "lat": -27.146273240128092, "lon": 12.932946893701718, "alt_km": 714.5768555190225, "timestamp": "2025-12-22T18:58:53.831303+00:00", "meta": {"OBJECT_NAME": "COSMOS 2251 DEB", "OBJECT_ID": "1993-036BXY", "EPOCH": "2025-12-21T18:53:38.325696", "MEAN_MOTION": 14.5320428, "ECCENTRICITY": 0.00182478, "INCLINATION": 74.0228, "RA_OF_ASC_NODE": 186.3806, "ARG_OF_PERICENTER": 272.8072, "MEAN_ANOMALY": 87.1001, "EPHEMERIS_TYPE": 0, "CLASSIFICATION_TYPE": "U", "NORAD_CAT_ID": 47068, "ELEMENT_SET_NO": 999, "REV_AT_EPOCH": 61888, "BSTAR": 0.00062182415, "MEAN_MOTION_DOT": 2.555e-05, "MEAN_MOTION_DDOT": 0}, "tle": {"line1": "1 47068U 93036BXY 25355.78724914  .00002555  00000+0  62182-3 0  9996", "line2": "2 47068  74.0228 186.3806 0018247 272.8072  87.1001 14.53204280618889"}}, "geometry": {"type": "Point", "coordinates": [12.932946893701718, -27.146273240128092]}}, {"type": "Feature", "properties": {"norad_id": 47073, "name": "COSMOS 2251 DEB", "group": "cosmos-2251-debris", "lat": 56.61604706043229, "lon": -149.98141748713974, "alt_km": 981.5021996249152, "timestamp": "2025-12-22T18:58:53.831335+00:00", "meta": {"OBJECT_NAME": "COSMOS 2251 DEB", "OBJECT_ID": "1993-036BYD", "EPOCH": "2025-12-20T05:09:22.277088", "MEAN_MOTION": 14.04735867, "ECCENTRICITY": 0.0161533, "INCLINATION": 74.0811, "RA_OF_ASC_NODE": 188.8357, "ARG_OF_PERICENTER": 225.3344, "MEAN_ANOMALY": 133.4535, "EPHEMERIS_TYPE": 0, "CLASSIFICATION_TYPE": "U", "NORAD_CAT_ID": 47073, "ELEMENT_SET_NO": 999, "REV_AT_EPOCH": 60466, "BSTAR": 0.00045488, "MEAN_MOTION_DOT": 7.94e-06, "MEAN_MOTION_DDOT": 0}, "tle": {"line1": "1 47073U 93036BYD 25354.21484117  .00000794  00000+0  45488-3 0  9990", "line2": "2 47073  74.0811 188.8357 0161533 225.3344 133.4535 14.04735867604667"}}, "geometry": {"type": "Point", "coordinates": [-149.98141748713974, 56.61604706043229]}}, {"type": "Feature", "properties": {"norad_id": 47074, "name": "COSMOS 2251 DEB", "group": "cosmos-2251-debris", "lat": -64.60018770858098, "lon": 147.24233963604962, "alt_km": 736.1641649105504, "timestamp": "2025-12-22T18:58:53.831346+00:00", "meta": {"OBJECT_NAME": "COSMOS 2251 DEB", "OBJECT_ID": "1993-036BYE", "EPOCH": "2025-12-16T13:32:26.153376", "MEAN_MOTION": 14.35650419, "ECCENTRICITY": 0.01449048, "INCLINATION": 74.0928, "RA_OF_ASC_NODE": 301.7157, "ARG_OF_PERICENTER": 328.8455, "MEAN_ANOMALY": 153.2821, "EPHEMERIS_TYPE": 0, "CLASSIFICATION_TYPE": "U", "NORAD_CAT_ID": 47074, "ELEMENT_SET_NO": 999, "REV_AT_EPOCH": 2737, "BSTAR": 0.0011411657, "MEAN_MOTION_DOT": 3.683e-05, "MEAN_MOTION_DDOT": 0}, "tle": {"line1": "1 47074U 93036BYE 25350.56419159  .00003683  00000+0  11412-2 0  9998", "line2": "2 47074  74.0928 301.7157 0144904 328.8455 153.2821 14.35650419 27374"}}, "geometry": {"type": "Point", "coordinates": [147.24233963604962, -64.60018770858098]}}, {"type": "Feature", "properties": {"norad_id": 47116, "name": "COSMOS 2251 DEB", "group": "cosmos-2251-debris", "lat": -26.613171748555466, "lon": 48.58097952298568, "alt_km": 580.3291308275557, "timestamp": "2025-12-22T18:58:53.831356+00:00", "meta": {"OBJECT_NAME": "COSMOS 2251 DEB", "OBJECT_ID": "1993-036BYJ", "EPOCH": "2025-12-17T22:44:25.492992", "MEAN_MOTION": 14.98433598, "ECCENTRICITY": 0.00213127, "INCLINATION": 74.0233, "RA_OF_ASC_NODE": 230.1515, "ARG_OF_PERICENTER": 323.4041, "MEAN_ANOMALY": 47.2172, "EPHEMERIS_TYPE": 0, "CLASSIFICATION_TYPE": "U", "NORAD_CAT_ID": 47116, "ELEMENT_SET_NO": 999, "REV_AT_EPOCH": 59589, "BSTAR": 0.0014083931, "MEAN_MOTION_DOT": 0.000169, "MEAN_MOTION_DDOT": 0}, "tle": {"line1": "1 47116U 93036BYJ 25351.94751728  .00016900  00000+0  14084-2 0  9993", "line2": "2 47116  74.0233 230.1515 0021312 323.4041  47.2172 14.98433598595896"}}, "geometry": {"type": "Point", "coordinates": [48.58097952298568, -26.613171748555466]}}, {"type": "Feature", "properties": {"norad_id": 53093, "name": "COSMOS 2251 DEB", "group": "cosmos-2251-debris", "lat": 29.241239877970887, "lon": 93.60473372372387, "alt_km": 762.6909530839866, "timestamp": "2025-12-22T18:58:53.831366+00:00", "meta": {"OBJECT_NAME": "COSMOS 2251 DEB", "OBJECT_ID": "1993-036BYP", "EPOCH": "2025-12-22T04:58:15.293280", "MEAN_MOTION": 14.41928673, "ECCENTRICITY": 0.00198097, "INCLINATION": 74.0369, "RA_OF_ASC_NODE": 283.9072, "ARG_OF_PERICENTER": 359.67, "MEAN_ANOMALY": 0.444, "EPHEMERIS_TYPE": 0, "CLASSIFICATION_TYPE": "U", "NORAD_CAT_ID": 53093, "ELEMENT_SET_NO": 999, "REV_AT_EPOCH": 17862, "BSTAR": 0.00082248293, "MEAN_MOTION_DOT": 2.675e-05, "MEAN_MOTION_DDOT": 0}, "tle": {"line1": "1 53093U 93036BYP 25356.20712145  .00002675  00000+0  82248-3 0  9990", "line2": "2 53093  74.0369 283.9072 0019809 359.6700   0.4440 14.41928673178620"}}, "geometry": {"type": "Point", "coordinates": [93.60473372372387, 29.241239877970887]}}]}